ATLAS CENTAUR 2         
1 00694U 63047A   26048.67915622  .00001279  00000+0  14142-3 0  9990
2 00694  30.3578 307.4693 0548131 263.9516  89.8387 14.12008908128796
THOR AGENA D R/B        
1 00733U 64002A   26049.61351334  .00000201  00000+0  89143-4 0  9993
2 00733  99.1230  61.9116 0032204 315.3603  44.4987 14.34007853235567
SL-3 R/B                
1 00877U 64053B   26049.32490193  .00000368  00000+0  95399-4 0  9997
2 00877  65.0774  28.0074 0078872 298.3628  60.9535 14.61347072263963
SL-8 R/B                
1 02802U 67045B   26049.40591770  .00000376  00000+0  11156-3 0  9990
2 02802  74.0115  24.0995 0063434  35.0839 325.4471 14.45601512 86233
SL-8 R/B                
1 03230U 68040B   26049.87487075  .00002503  00000+0  18739-3 0  9993
2 03230  74.0335 352.1309 0024753 181.8546 178.2555 15.03112319 87182
OAO 2                   
1 03597U 68110A   26049.19052771  .00000252  00000+0  73201-4 0  9998
2 03597  34.9948  14.0893 0005083  36.5060 323.5976 14.47295260 16275
ISIS 1                  
1 03669U 69009A   26049.77869388  .00000192  00000+0  12088-3 0  9998
2 03669  88.4555 157.3690 1707836 127.3161 249.6153 11.30407245346397
SERT 2                  
1 04327U 70009A   26049.84754784 -.00000003  00000+0  52596-4 0  9994
2 04327  99.2736 353.9747 0004300 204.6578 216.5570 13.58727740777338
SL-3 R/B                
1 05118U 71028B   26049.86540552  .00031162  00000+0  38933-3 0  9990
2 05118  81.2322  75.2541 0016239   0.7564 359.3710 15.59515080985731
ASTEX 1                 
1 05560U 71089A   26049.78541836  .00000471  00000+0  11982-3 0  9999
2 05560  92.7144 145.6445 0017044 142.3699 217.8703 14.50746967859564
SL-8 R/B                
1 05730U 71119B   26049.86718421  .00014659  00000+0  76033-3 0  9998
2 05730  73.8854 210.8846 0552272 181.4022 178.5623 14.37250909652782
OAO 3 (COPERNICUS)      
1 06153U 72065A   26049.10794561  .00000375  00000+0  81349-4 0  9992
2 06153  35.0063  48.8767 0006596 355.0129  60.9486 14.59979920843334
