CCSDS_OMM_VERS = 2.0
CREATION_DATE  = 
ORIGINATOR     = 

OBJECT_NAME    = ATLAS CENTAUR 2
OBJECT_ID      = 1963-047A
CENTER_NAME    = EARTH
REF_FRAME      = TEME
TIME_SYSTEM    = UTC
MEAN_ELEMENT_THEORY = SGP/SGP4

EPOCH          = 2026-02-17T16:17:59.097408
MEAN_MOTION    = 14.12008908
ECCENTRICITY   = .05481319
INCLINATION    = 30.3578
RA_OF_ASC_NODE = 307.4693
ARG_OF_PERICENTER = 263.9516
MEAN_ANOMALY   = 89.8387

EPHEMERIS_TYPE = 0
CLASSIFICATION_TYPE = U
NORAD_CAT_ID   = 694
ELEMENT_SET_NO = 999
REV_AT_EPOCH   = 12879
BSTAR          = .14142148E-3
MEAN_MOTION_DOT = .1279E-4
MEAN_MOTION_DDOT = 0

CCSDS_OMM_VERS = 2.0
CREATION_DATE  = 
ORIGINATOR     = 

OBJECT_NAME    = THOR AGENA D R/B
OBJECT_ID      = 1964-002A
CENTER_NAME    = EARTH
REF_FRAME      = TEME
TIME_SYSTEM    = UTC
MEAN_ELEMENT_THEORY = SGP/SGP4

EPOCH          = 2026-02-18T14:43:27.552576
MEAN_MOTION    = 14.34007853
ECCENTRICITY   = .0032204
INCLINATION    = 99.1230
RA_OF_ASC_NODE = 61.9116
ARG_OF_PERICENTER = 315.3603
MEAN_ANOMALY   = 44.4987

EPHEMERIS_TYPE = 0
CLASSIFICATION_TYPE = U
NORAD_CAT_ID   = 733
ELEMENT_SET_NO = 999
REV_AT_EPOCH   = 23556
BSTAR          = .89143E-4
MEAN_MOTION_DOT = .201E-5
MEAN_MOTION_DDOT = 0

CCSDS_OMM_VERS = 2.0
CREATION_DATE  = 
ORIGINATOR     = 

OBJECT_NAME    = SL-3 R/B
OBJECT_ID      = 1964-053B
CENTER_NAME    = EARTH
REF_FRAME      = TEME
TIME_SYSTEM    = UTC
MEAN_ELEMENT_THEORY = SGP/SGP4

EPOCH          = 2026-02-18T07:47:51.526752
MEAN_MOTION    = 14.61347072
ECCENTRICITY   = .0078872
INCLINATION    = 65.0774
RA_OF_ASC_NODE = 28.0074
ARG_OF_PERICENTER = 298.3628
MEAN_ANOMALY   = 60.9535

EPHEMERIS_TYPE = 0
CLASSIFICATION_TYPE = U
NORAD_CAT_ID   = 877
ELEMENT_SET_NO = 999
REV_AT_EPOCH   = 26396
BSTAR          = .95399E-4
MEAN_MOTION_DOT = .368E-5
MEAN_MOTION_DDOT = 0

CCSDS_OMM_VERS = 2.0
CREATION_DATE  = 
ORIGINATOR     = 

OBJECT_NAME    = SL-8 R/B
OBJECT_ID      = 1967-045B
CENTER_NAME    = EARTH
REF_FRAME      = TEME
TIME_SYSTEM    = UTC
MEAN_ELEMENT_THEORY = SGP/SGP4

EPOCH          = 2026-02-18T09:44:31.289280
MEAN_MOTION    = 14.45601512
ECCENTRICITY   = .0063434
INCLINATION    = 74.0115
RA_OF_ASC_NODE = 24.0995
ARG_OF_PERICENTER = 35.0839
MEAN_ANOMALY   = 325.4471

EPHEMERIS_TYPE = 0
CLASSIFICATION_TYPE = U
NORAD_CAT_ID   = 2802
ELEMENT_SET_NO = 999
REV_AT_EPOCH   = 8623
BSTAR          = .11156E-3
MEAN_MOTION_DOT = .376E-5
MEAN_MOTION_DDOT = 0

CCSDS_OMM_VERS = 2.0
CREATION_DATE  = 
ORIGINATOR     = 

OBJECT_NAME    = SL-8 R/B
OBJECT_ID      = 1968-040B
CENTER_NAME    = EARTH
REF_FRAME      = TEME
TIME_SYSTEM    = UTC
MEAN_ELEMENT_THEORY = SGP/SGP4

EPOCH          = 2026-02-18T20:59:48.832800
MEAN_MOTION    = 15.03112319
ECCENTRICITY   = .0024753
INCLINATION    = 74.0335
RA_OF_ASC_NODE = 352.1309
ARG_OF_PERICENTER = 181.8546
MEAN_ANOMALY   = 178.2555

EPHEMERIS_TYPE = 0
CLASSIFICATION_TYPE = U
NORAD_CAT_ID   = 3230
ELEMENT_SET_NO = 999
REV_AT_EPOCH   = 8718
BSTAR          = .18739E-3
MEAN_MOTION_DOT = .2503E-4
MEAN_MOTION_DDOT = 0

CCSDS_OMM_VERS = 2.0
CREATION_DATE  = 
ORIGINATOR     = 

OBJECT_NAME    = OAO 2
OBJECT_ID      = 1968-110A
CENTER_NAME    = EARTH
REF_FRAME      = TEME
TIME_SYSTEM    = UTC
MEAN_ELEMENT_THEORY = SGP/SGP4

EPOCH          = 2026-02-18T04:34:21.594144
MEAN_MOTION    = 14.47295260
ECCENTRICITY   = .0005083
INCLINATION    = 34.9948
RA_OF_ASC_NODE = 14.0893
ARG_OF_PERICENTER = 36.5060
MEAN_ANOMALY   = 323.5976

EPHEMERIS_TYPE = 0
CLASSIFICATION_TYPE = U
NORAD_CAT_ID   = 3597
ELEMENT_SET_NO = 999
REV_AT_EPOCH   = 1627
BSTAR          = .73201E-4
MEAN_MOTION_DOT = .252E-5
MEAN_MOTION_DDOT = 0

CCSDS_OMM_VERS = 2.0
CREATION_DATE  = 
ORIGINATOR     = 

OBJECT_NAME    = ISIS 1
OBJECT_ID      = 1969-009A
CENTER_NAME    = EARTH
REF_FRAME      = TEME
TIME_SYSTEM    = UTC
MEAN_ELEMENT_THEORY = SGP/SGP4

EPOCH          = 2026-02-18T18:41:19.151232
MEAN_MOTION    = 11.30407245
ECCENTRICITY   = .1707836
INCLINATION    = 88.4555
RA_OF_ASC_NODE = 157.3690
ARG_OF_PERICENTER = 127.3161
MEAN_ANOMALY   = 249.6153

EPHEMERIS_TYPE = 0
CLASSIFICATION_TYPE = U
NORAD_CAT_ID   = 3669
ELEMENT_SET_NO = 999
REV_AT_EPOCH   = 34639
BSTAR          = .12088E-3
MEAN_MOTION_DOT = .192E-5
MEAN_MOTION_DDOT = 0

CCSDS_OMM_VERS = 2.0
CREATION_DATE  = 
ORIGINATOR     = 

OBJECT_NAME    = SERT 2
OBJECT_ID      = 1970-009A
CENTER_NAME    = EARTH
REF_FRAME      = TEME
TIME_SYSTEM    = UTC
MEAN_ELEMENT_THEORY = SGP/SGP4

EPOCH          = 2026-02-18T20:20:28.133376
MEAN_MOTION    = 13.58727740
ECCENTRICITY   = .00043
INCLINATION    = 99.2736
RA_OF_ASC_NODE = 353.9747
ARG_OF_PERICENTER = 204.6578
MEAN_ANOMALY   = 216.5570

EPHEMERIS_TYPE = 0
CLASSIFICATION_TYPE = U
NORAD_CAT_ID   = 4327
ELEMENT_SET_NO = 999
REV_AT_EPOCH   = 77733
BSTAR          = .52596E-4
MEAN_MOTION_DOT = -.3E-7
MEAN_MOTION_DDOT = 0

CCSDS_OMM_VERS = 2.0
CREATION_DATE  = 
ORIGINATOR     = 

OBJECT_NAME    = SL-3 R/B
OBJECT_ID      = 1971-028B
CENTER_NAME    = EARTH
REF_FRAME      = TEME
TIME_SYSTEM    = UTC
MEAN_ELEMENT_THEORY = SGP/SGP4

EPOCH          = 2026-02-18T20:46:11.036928
MEAN_MOTION    = 15.59515080
ECCENTRICITY   = .0016239
INCLINATION    = 81.2322
RA_OF_ASC_NODE = 75.2541
ARG_OF_PERICENTER = 0.7564
MEAN_ANOMALY   = 359.3710

EPHEMERIS_TYPE = 0
CLASSIFICATION_TYPE = U
NORAD_CAT_ID   = 5118
ELEMENT_SET_NO = 999
REV_AT_EPOCH   = 98573
BSTAR          = .38933E-3
MEAN_MOTION_DOT = .31162E-3
MEAN_MOTION_DDOT = 0

CCSDS_OMM_VERS = 2.0
CREATION_DATE  = 
ORIGINATOR     = 

OBJECT_NAME    = ASTEX 1
OBJECT_ID      = 1971-089A
CENTER_NAME    = EARTH
REF_FRAME      = TEME
TIME_SYSTEM    = UTC
MEAN_ELEMENT_THEORY = SGP/SGP4

EPOCH          = 2026-02-18T18:51:00.146304
MEAN_MOTION    = 14.50746967
ECCENTRICITY   = .0017044
INCLINATION    = 92.7144
RA_OF_ASC_NODE = 145.6445
ARG_OF_PERICENTER = 142.3699
MEAN_ANOMALY   = 217.8703

EPHEMERIS_TYPE = 0
CLASSIFICATION_TYPE = U
NORAD_CAT_ID   = 5560
ELEMENT_SET_NO = 999
REV_AT_EPOCH   = 85956
BSTAR          = .11982E-3
MEAN_MOTION_DOT = .471E-5
MEAN_MOTION_DDOT = 0

CCSDS_OMM_VERS = 2.0
CREATION_DATE  = 
ORIGINATOR     = 

OBJECT_NAME    = SL-8 R/B
OBJECT_ID      = 1971-119B
CENTER_NAME    = EARTH
REF_FRAME      = TEME
TIME_SYSTEM    = UTC
MEAN_ELEMENT_THEORY = SGP/SGP4

EPOCH          = 2026-02-18T20:48:44.715744
MEAN_MOTION    = 14.37250909
ECCENTRICITY   = .0552272
INCLINATION    = 73.8854
RA_OF_ASC_NODE = 210.8846
ARG_OF_PERICENTER = 181.4022
MEAN_ANOMALY   = 178.5623

EPHEMERIS_TYPE = 0
CLASSIFICATION_TYPE = U
NORAD_CAT_ID   = 5730
ELEMENT_SET_NO = 999
REV_AT_EPOCH   = 65278
BSTAR          = .76033E-3
MEAN_MOTION_DOT = .14659E-3
MEAN_MOTION_DDOT = 0

CCSDS_OMM_VERS = 2.0
CREATION_DATE  = 
ORIGINATOR     = 

OBJECT_NAME    = OAO 3 (COPERNICUS)
OBJECT_ID      = 1972-065A
CENTER_NAME    = EARTH
REF_FRAME      = TEME
TIME_SYSTEM    = UTC
MEAN_ELEMENT_THEORY = SGP/SGP4

EPOCH          = 2026-02-18T02:35:26.500704
MEAN_MOTION    = 14.59979920
ECCENTRICITY   = .00065962
INCLINATION    = 35.0063
RA_OF_ASC_NODE = 48.8767
ARG_OF_PERICENTER = 355.0129
MEAN_ANOMALY   = 60.9486

EPHEMERIS_TYPE = 0
CLASSIFICATION_TYPE = U
NORAD_CAT_ID   = 6153
ELEMENT_SET_NO = 999
REV_AT_EPOCH   = 84333
BSTAR          = .81349007E-4
MEAN_MOTION_DOT = .375E-5
MEAN_MOTION_DDOT = 0

